<?xml version="1.0" encoding="UTF-8"?>
<ndm xmlns:xsi="http://www.w3.org/2001/XMLSchema-instance" xsi:noNamespaceSchemaLocation="https://sanaregistry.org/r/ndmxml_unqualified/ndmxml-2.0.0-master-2.0.xsd">
<omm id="CCSDS_OMM_VERS" version="2.0">
<header><CREATION_DATE/><ORIGINATOR/></header><body><segment><metadata><OBJECT_NAME>KUIPER-00008</OBJECT_NAME><OBJECT_ID>2025-088A</OBJECT_ID><CENTER_NAME>EARTH</CENTER_NAME><REF_FRAME>TEME</REF_FRAME><TIME_SYSTEM>UTC</TIME_SYSTEM><MEAN_ELEMENT_THEORY>SGP4</MEAN_ELEMENT_THEORY></metadata><data><meanElements><EPOCH>2025-07-26T06:00:00.999648</EPOCH><MEAN_MOTION>15.02492886</MEAN_MOTION><ECCENTRICITY>.001213</ECCENTRICITY><INCLINATION>51.8890</INCLINATION><RA_OF_ASC_NODE>39.3156</RA_OF_ASC_NODE><ARG_OF_PERICENTER>62.9348</ARG_OF_PERICENTER><MEAN_ANOMALY>160.1920</MEAN_ANOMALY></meanElements><tleParameters><EPHEMERIS_TYPE>0</EPHEMERIS_TYPE><CLASSIFICATION_TYPE>U</CLASSIFICATION_TYPE><NORAD_CAT_ID>63724</NORAD_CAT_ID><ELEMENT_SET_NO>999</ELEMENT_SET_NO><REV_AT_EPOCH>1408</REV_AT_EPOCH><BSTAR>-.13472E-2</BSTAR><MEAN_MOTION_DOT>-.18347E-3</MEAN_MOTION_DOT><MEAN_MOTION_DDOT>0</MEAN_MOTION_DDOT></tleParameters></data></segment></body></omm>
<omm id="CCSDS_OMM_VERS" version="2.0">
<header><CREATION_DATE/><ORIGINATOR/></header><body><segment><metadata><OBJECT_NAME>KUIPER-00009</OBJECT_NAME><OBJECT_ID>2025-088B</OBJECT_ID><CENTER_NAME>EARTH</CENTER_NAME><REF_FRAME>TEME</REF_FRAME><TIME_SYSTEM>UTC</TIME_SYSTEM><MEAN_ELEMENT_THEORY>SGP4</MEAN_ELEMENT_THEORY></metadata><data><meanElements><EPOCH>2025-07-26T14:00:01.999872</EPOCH><MEAN_MOTION>15.18443804</MEAN_MOTION><ECCENTRICITY>.0011788</ECCENTRICITY><INCLINATION>51.8784</INCLINATION><RA_OF_ASC_NODE>31.8767</RA_OF_ASC_NODE><ARG_OF_PERICENTER>89.8870</ARG_OF_PERICENTER><MEAN_ANOMALY>188.5058</MEAN_ANOMALY></meanElements><tleParameters><EPHEMERIS_TYPE>0</EPHEMERIS_TYPE><CLASSIFICATION_TYPE>U</CLASSIFICATION_TYPE><NORAD_CAT_ID>63725</NORAD_CAT_ID><ELEMENT_SET_NO>999</ELEMENT_SET_NO><REV_AT_EPOCH>1421</REV_AT_EPOCH><BSTAR>-.71009E-1</BSTAR><MEAN_MOTION_DOT>-.1350647E-1</MEAN_MOTION_DOT><MEAN_MOTION_DDOT>0</MEAN_MOTION_DDOT></tleParameters></data></segment></body></omm>
<omm id="CCSDS_OMM_VERS" version="2.0">
<header><CREATION_DATE/><ORIGINATOR/></header><body><segment><metadata><OBJECT_NAME>KUIPER-00010</OBJECT_NAME><OBJECT_ID>2025-088C</OBJECT_ID><CENTER_NAME>EARTH</CENTER_NAME><REF_FRAME>TEME</REF_FRAME><TIME_SYSTEM>UTC</TIME_SYSTEM><MEAN_ELEMENT_THEORY>SGP4</MEAN_ELEMENT_THEORY></metadata><data><meanElements><EPOCH>2025-07-25T17:01:29.955936</EPOCH><MEAN_MOTION>15.35976630</MEAN_MOTION><ECCENTRICITY>.0009892</ECCENTRICITY><INCLINATION>51.8652</INCLINATION><RA_OF_ASC_NODE>34.9151</RA_OF_ASC_NODE><ARG_OF_PERICENTER>71.6653</ARG_OF_PERICENTER><MEAN_ANOMALY>288.5408</MEAN_ANOMALY></meanElements><tleParameters><EPHEMERIS_TYPE>0</EPHEMERIS_TYPE><CLASSIFICATION_TYPE>U</CLASSIFICATION_TYPE><NORAD_CAT_ID>63726</NORAD_CAT_ID><ELEMENT_SET_NO>999</ELEMENT_SET_NO><REV_AT_EPOCH>1372</REV_AT_EPOCH><BSTAR>.34896E-3</BSTAR><MEAN_MOTION_DOT>.1206E-3</MEAN_MOTION_DOT><MEAN_MOTION_DDOT>0</MEAN_MOTION_DDOT></tleParameters></data></segment></body></omm>
<omm id="CCSDS_OMM_VERS" version="2.0">
<header><CREATION_DATE/><ORIGINATOR/></header><body><segment><metadata><OBJECT_NAME>KUIPER-00011</OBJECT_NAME><OBJECT_ID>2025-088D</OBJECT_ID><CENTER_NAME>EARTH</CENTER_NAME><REF_FRAME>TEME</REF_FRAME><TIME_SYSTEM>UTC</TIME_SYSTEM><MEAN_ELEMENT_THEORY>SGP4</MEAN_ELEMENT_THEORY></metadata><data><meanElements><EPOCH>2025-07-26T12:24:14.825664</EPOCH><MEAN_MOTION>15.35472092</MEAN_MOTION><ECCENTRICITY>.0011261</ECCENTRICITY><INCLINATION>51.8584</INCLINATION><RA_OF_ASC_NODE>31.2625</RA_OF_ASC_NODE><ARG_OF_PERICENTER>82.6464</ARG_OF_PERICENTER><MEAN_ANOMALY>277.5801</MEAN_ANOMALY></meanElements><tleParameters><EPHEMERIS_TYPE>0</EPHEMERIS_TYPE><CLASSIFICATION_TYPE>U</CLASSIFICATION_TYPE><NORAD_CAT_ID>63727</NORAD_CAT_ID><ELEMENT_SET_NO>999</ELEMENT_SET_NO><REV_AT_EPOCH>1398</REV_AT_EPOCH><BSTAR>.35415E-3</BSTAR><MEAN_MOTION_DOT>.12049E-3</MEAN_MOTION_DOT><MEAN_MOTION_DDOT>0</MEAN_MOTION_DDOT></tleParameters></data></segment></body></omm>
<omm id="CCSDS_OMM_VERS" version="2.0">
<header><CREATION_DATE/><ORIGINATOR/></header><body><segment><metadata><OBJECT_NAME>KUIPER-00012</OBJECT_NAME><OBJECT_ID>2025-088E</OBJECT_ID><CENTER_NAME>EARTH</CENTER_NAME><REF_FRAME>TEME</REF_FRAME><TIME_SYSTEM>UTC</TIME_SYSTEM><MEAN_ELEMENT_THEORY>SGP4</MEAN_ELEMENT_THEORY></metadata><data><meanElements><EPOCH>2025-07-25T22:18:20.450304</EPOCH><MEAN_MOTION>15.35611265</MEAN_MOTION><ECCENTRICITY>.0011443</ECCENTRICITY><INCLINATION>51.8567</INCLINATION><RA_OF_ASC_NODE>34.0651</RA_OF_ASC_NODE><ARG_OF_PERICENTER>81.1008</ARG_OF_PERICENTER><MEAN_ANOMALY>279.1273</MEAN_ANOMALY></meanElements><tleParameters><EPHEMERIS_TYPE>0</EPHEMERIS_TYPE><CLASSIFICATION_TYPE>U</CLASSIFICATION_TYPE><NORAD_CAT_ID>63728</NORAD_CAT_ID><ELEMENT_SET_NO>999</ELEMENT_SET_NO><REV_AT_EPOCH>1384</REV_AT_EPOCH><BSTAR>.37573E-3</BSTAR><MEAN_MOTION_DOT>.12868E-3</MEAN_MOTION_DOT><MEAN_MOTION_DDOT>0</MEAN_MOTION_DDOT></tleParameters></data></segment></body></omm>
<omm id="CCSDS_OMM_VERS" version="2.0">
<header><CREATION_DATE/><ORIGINATOR/></header><body><segment><metadata><OBJECT_NAME>KUIPER-00013</OBJECT_NAME><OBJECT_ID>2025-088F</OBJECT_ID><CENTER_NAME>EARTH</CENTER_NAME><REF_FRAME>TEME</REF_FRAME><TIME_SYSTEM>UTC</TIME_SYSTEM><MEAN_ELEMENT_THEORY>SGP4</MEAN_ELEMENT_THEORY></metadata><data><meanElements><EPOCH>2025-07-26T06:00:00.999648</EPOCH><MEAN_MOTION>15.16425986</MEAN_MOTION><ECCENTRICITY>.0006104</ECCENTRICITY><INCLINATION>51.8782</INCLINATION><RA_OF_ASC_NODE>34.0497</RA_OF_ASC_NODE><ARG_OF_PERICENTER>53.8267</ARG_OF_PERICENTER><MEAN_ANOMALY>263.0821</MEAN_ANOMALY></meanElements><tleParameters><EPHEMERIS_TYPE>0</EPHEMERIS_TYPE><CLASSIFICATION_TYPE>U</CLASSIFICATION_TYPE><NORAD_CAT_ID>63729</NORAD_CAT_ID><ELEMENT_SET_NO>999</ELEMENT_SET_NO><REV_AT_EPOCH>1396</REV_AT_EPOCH><BSTAR>-.34167E-3</BSTAR><MEAN_MOTION_DOT>-.7038E-4</MEAN_MOTION_DOT><MEAN_MOTION_DDOT>0</MEAN_MOTION_DDOT></tleParameters></data></segment></body></omm>
<omm id="CCSDS_OMM_VERS" version="2.0">
<header><CREATION_DATE/><ORIGINATOR/></header><body><segment><metadata><OBJECT_NAME>KUIPER-00014</OBJECT_NAME><OBJECT_ID>2025-088G</OBJECT_ID><CENTER_NAME>EARTH</CENTER_NAME><REF_FRAME>TEME</REF_FRAME><TIME_SYSTEM>UTC</TIME_SYSTEM><MEAN_ELEMENT_THEORY>SGP4</MEAN_ELEMENT_THEORY></metadata><data><meanElements><EPOCH>2025-07-26T14:00:01.999872</EPOCH><MEAN_MOTION>15.14611730</MEAN_MOTION><ECCENTRICITY>.0009952</ECCENTRICITY><INCLINATION>51.8788</INCLINATION><RA_OF_ASC_NODE>33.4310</RA_OF_ASC_NODE><ARG_OF_PERICENTER>78.7356</ARG_OF_PERICENTER><MEAN_ANOMALY>196.2015</MEAN_ANOMALY></meanElements><tleParameters><EPHEMERIS_TYPE>0</EPHEMERIS_TYPE><CLASSIFICATION_TYPE>U</CLASSIFICATION_TYPE><NORAD_CAT_ID>63730</NORAD_CAT_ID><ELEMENT_SET_NO>999</ELEMENT_SET_NO><REV_AT_EPOCH>1381</REV_AT_EPOCH><BSTAR>-.15823E-2</BSTAR><MEAN_MOTION_DOT>-.29817E-3</MEAN_MOTION_DOT><MEAN_MOTION_DDOT>0</MEAN_MOTION_DDOT></tleParameters></data></segment></body></omm>
<omm id="CCSDS_OMM_VERS" version="2.0">
<header><CREATION_DATE/><ORIGINATOR/></header><body><segment><metadata><OBJECT_NAME>KUIPER-00015</OBJECT_NAME><OBJECT_ID>2025-088H</OBJECT_ID><CENTER_NAME>EARTH</CENTER_NAME><REF_FRAME>TEME</REF_FRAME><TIME_SYSTEM>UTC</TIME_SYSTEM><MEAN_ELEMENT_THEORY>SGP4</MEAN_ELEMENT_THEORY></metadata><data><meanElements><EPOCH>2025-07-26T12:00:00.999648</EPOCH><MEAN_MOTION>14.93441993</MEAN_MOTION><ECCENTRICITY>.00114</ECCENTRICITY><INCLINATION>51.8916</INCLINATION><RA_OF_ASC_NODE>42.0054</RA_OF_ASC_NODE><ARG_OF_PERICENTER>59.4727</ARG_OF_PERICENTER><MEAN_ANOMALY>344.1938</MEAN_ANOMALY></meanElements><tleParameters><EPHEMERIS_TYPE>0</EPHEMERIS_TYPE><CLASSIFICATION_TYPE>U</CLASSIFICATION_TYPE><NORAD_CAT_ID>63731</NORAD_CAT_ID><ELEMENT_SET_NO>999</ELEMENT_SET_NO><REV_AT_EPOCH>1415</REV_AT_EPOCH><BSTAR>-.96604E-1</BSTAR><MEAN_MOTION_DOT>-.95759E-2</MEAN_MOTION_DOT><MEAN_MOTION_DDOT>0</MEAN_MOTION_DDOT></tleParameters></data></segment></body></omm>

</ndm>
