KUIPER-00008            
1 63724U 25088A   25207.25001157 -.00018347  00000+0 -13472-2 0  9995
2 63724  51.8890  39.3156 0012130  62.9348 160.1920 15.02492886 14088
KUIPER-00009            
1 63725U 25088B   25207.58335648 -.01350647  00000+0 -71009-1 0  9999
2 63725  51.8784  31.8767 0011788  89.8870 188.5058 15.18443804 14216
KUIPER-00010            
1 63726U 25088C   25206.70937449  .00012060  00000+0  34896-3 0  9996
2 63726  51.8652  34.9151 0009892  71.6653 288.5408 15.35976630 13725
KUIPER-00011            
1 63727U 25088D   25207.51683826  .00012049  00000+0  35415-3 0  9999
2 63727  51.8584  31.2625 0011261  82.6464 277.5801 15.35472092 13987
KUIPER-00012            
1 63728U 25088E   25206.92940336  .00012868  00000+0  37573-3 0  9992
2 63728  51.8567  34.0651 0011443  81.1008 279.1273 15.35611265 13842
KUIPER-00013            
1 63729U 25088F   25207.25001157 -.00007038  00000+0 -34167-3 0  9990
2 63729  51.8782  34.0497 0006104  53.8267 263.0821 15.16425986 13967
KUIPER-00014            
1 63730U 25088G   25207.58335648 -.00029817  00000+0 -15823-2 0  9999
2 63730  51.8788  33.4310 0009952  78.7356 196.2015 15.14611730 13819
KUIPER-00015            
1 63731U 25088H   25207.50001157 -.00957590  00000+0 -96604-1 0  9990
2 63731  51.8916  42.0054 0011400  59.4727 344.1938 14.93441993 14157
